NORAD_CAT_ID,OBJECT_NAME,OBJECT_TYPE,EPOCH,MEAN_MOTION,ECCENTRICITY,INCLINATION,RA_OF_ASC_NODE,ARG_OF_PERICENTER,MEAN_ANOMALY,BSTAR,MEAN_MOTION_DOT,MEAN_MOTION_DDOT,TLE_LINE0,TLE_LINE1,TLE_LINE2,SEMIMAJOR_AXIS,PERIOD,APOGEE,PERIGEE,DECAYED
54003.0,STARLINK-5114,PAYLOAD,2022-12-25 05:11:23,15.08832003,0.0002148,53.2193,68.3857,28.2041,331.9067,1.1146e-05,-1.11e-06,0.0,0 STARLINK-5114,1 54003U 22125AR  22359.21624961 -.00000111  00000-0  11146-4 0  9997,2 54003  53.2193  68.3857 0002148  28.2041 331.9067 15.08832003 12817,6917.905,95.438,541.256,538.284,0.0
54003.0,STARLINK-5114,PAYLOAD,2022-12-25 11:32:56,15.08829298,0.0002206,53.2194,67.1967,26.4386,333.6718,-9.2534e-06,-4.35e-06,0.0,0 STARLINK-5114,1 54003U 22125AR  22359.48121350 -.00000435  00000-0 -92534-5 0  9991,2 54003  53.2194  67.1967 0002206  26.4386 333.6718 15.08829298 12807,6917.913000000001,95.438,541.304,538.252,0.0
54003.0,STARLINK-5114,PAYLOAD,2022-12-25 21:05:15,15.08835401,0.0002285,53.2195,65.4113,31.2022,328.9105,3.9592e-05,3.42e-06,0.0,0 STARLINK-5114,1 54003U 22125AR  22359.87864929  .00000342  00000-0  39592-4 0  9999,2 54003  53.2195  65.4113 0002285  31.2022 328.9105 15.08835401 12866,6917.894,95.438,541.34,538.179,0.0
54003.0,STARLINK-5114,PAYLOAD,2022-12-26 12:59:07,15.08835197,0.000222,53.2192,62.4388,30.4115,329.7006,-2.5567e-05,-6.95e-06,0.0,0 STARLINK-5114,1 54003U 22125AR  22360.54105451 -.00000695  00000-0 -25567-4 0  9993,2 54003  53.2192  62.4388 0002220  30.4115 329.7006 15.08835197 12969,6917.895,95.438,541.2959999999998,538.224,0.0
54003.0,STARLINK-5114,PAYLOAD,2022-12-26 14:34:30,15.08836592,0.0002356,53.2187,62.1409,38.247,321.8689,-3.5347e-05,-8.51e-06,0.0,0 STARLINK-5114,1 54003U 22125AR  22360.60729458 -.00000851  00000-0 -35347-4 0  9990,2 54003  53.2187  62.1409 0002356  38.2470 321.8689 15.08836592 13022,6917.891,95.438,541.386,538.126,0.0
54003.0,STARLINK-5114,PAYLOAD,2022-12-26 20:56:02,15.08842116,0.00023,53.2198,60.9515,32.0884,328.0248,8.1463e-05,1.008e-05,0.0,0 STARLINK-5114,1 54003U 22125AR  22360.87224682  .00001008  00000-0  81463-4 0  9991,2 54003  53.2198  60.9515 0002300  32.0884 328.0248 15.08842116 13016,6917.874,95.437,541.33,538.148,0.0
54003.0,STARLINK-5114,PAYLOAD,2022-12-27 03:17:34,15.08849859,0.0002323,53.2196,59.7614,32.4709,327.6426,0.00012957,1.775e-05,0.0,0 STARLINK-5114,1 54003U 22125AR  22361.13719943  .00001775  00000-0  12957-3 0  9992,2 54003  53.2196  59.7614 0002323  32.4709 327.6426 15.08849859 13109,6917.85,95.437,541.322,538.1080000000002,0.0
54003.0,STARLINK-5114,PAYLOAD,2022-12-27 11:14:29,15.08847929,0.0002373,53.2199,58.2752,35.0006,325.1141,0.0001477,2.064e-05,0.0,0 STARLINK-5114,1 54003U 22125AR  22361.46839890  .00002064  00000-0  14770-3 0  9999,2 54003  53.2199  58.2752 0002373  35.0006 325.1141 15.08847929 13106,6917.856,95.437,541.363,538.08,0.0
54003.0,STARLINK-5114,PAYLOAD,2022-12-28 12:40:39,15.08847663,0.0002512,53.2205,53.5171,2.084,358.0162,8.7753e-05,1.109e-05,0.0,0 STARLINK-5114,1 54003U 22125AR  22362.52823492  .00001109  00000-0  87753-4 0  9999,2 54003  53.2205  53.5171 0002512   2.0840 358.0162 15.08847663 13262,6917.857,95.437,541.46,537.984,0.0
54003.0,STARLINK-5114,PAYLOAD,2022-12-29 04:34:32,15.08840226,0.0002213,53.2205,50.5467,42.8084,317.3081,-0.00017878,-3.133e-05,0.0,0 STARLINK-5114,1 54003U 22125AR  22363.19065156 -.00003133  00000-0 -17878-3 0  9999,2 54003  53.2205  50.5467 0002213  42.8084 317.3081 15.08840226 13410,6917.88,95.438,541.276,538.214,0.0
54003.0,STARLINK-5114,PAYLOAD,2022-12-29 12:31:28,15.08829537,0.0002518,53.2179,49.0532,28.2054,331.9074,-0.00020118,-3.488e-05,0.0,0 STARLINK-5114,1 54003U 22125AR  22363.52186164 -.00003488  00000-0 -20118-3 0  9993,2 54003  53.2179  49.0532 0002518  28.2054 331.9074 15.08829537 13415,6917.9119999999975,95.438,541.519,538.035,0.0
54003.0,STARLINK-5114,PAYLOAD,2022-12-30 09:11:29,15.08827252,0.0002648,53.2173,45.192,31.204,328.9109,-2.4945e-05,-6.85e-06,0.0,0 STARLINK-5114,1 54003U 22125AR  22364.38298407 -.00000685  00000-0 -24945-4 0  9991,2 54003  53.2173  45.1920 0002648  31.2040 328.9109 15.08827252 13541,6917.919,95.438,541.616,537.952,0.0
54003.0,STARLINK-5114,PAYLOAD,2022-12-31 02:40:43,15.08837747,0.0002599,53.2198,41.9211,26.127,333.9853,0.0002158,3.148e-05,0.0,0 STARLINK-5114,1 54003U 22125AR  22365.11161138  .00003148  00000-0  21580-3 0  9999,2 54003  53.2198  41.9211 0002599  26.1270 333.9853 15.08837747 13708,6917.887,95.438,541.55,537.9540000000002,0.0
54003.0,STARLINK-5114,PAYLOAD,2022-12-31 09:02:14,15.08852696,0.0002399999999999,53.2182,40.7303,35.0408,325.0741,0.00032046,4.817e-05,0.0,0 STARLINK-5114,1 54003U 22125AR  22365.37655736  .00004817  00000-0  32046-3 0  9992,2 54003  53.2182  40.7303 0002400  35.0408 325.0741 15.08852696 13745,6917.842,95.437,541.367,538.0459999999998,0.0
54003.0,STARLINK-5114,PAYLOAD,2022-12-31 12:13:01,15.08846324,0.0002572,53.2186,40.1367,35.1715,324.9447,0.00029123,4.351e-05,0.0,0 STARLINK-5114,1 54003U 22125AR  22365.50904146  .00004351  00000-0  29123-3 0  9994,2 54003  53.2186  40.1367 0002572  35.1715 324.9447 15.08846324 13714,6917.861,95.437,541.505,537.947,0.0
54003.0,STARLINK-5114,PAYLOAD,2023-01-01 02:31:29,15.08845079,0.0002653,53.2168,37.4602,36.4384,323.6788,0.00014049,1.949e-05,0.0,0 STARLINK-5114,1 54003U 22125AR  23001.10520786  .00001949  00000-0  14049-3 0  9993,2 54003  53.2168  37.4602 0002653  36.4384 323.6788 15.08845079 13856,6917.865,95.437,541.565,537.895,0.0
54003.0,STARLINK-5114,PAYLOAD,2023-01-01 08:53:04,15.08822871,0.0002454,53.2184,36.2702,33.6263,326.4884,-4.4954e-05,-1.003e-05,0.0,0 STARLINK-5114,1 54003U 22125AR  23001.37018731 -.00001003  00000-0 -44954-4 0  9996,2 54003  53.2184  36.2702 0002454  33.6263 326.4884 15.08822871 13893,6917.933000000001,95.439,541.495,538.1,0.0
54003.0,STARLINK-5114,PAYLOAD,2023-01-02 02:22:18,15.08837936,0.0002539,53.2196,33.0009,30.3574,329.7565,-0.00025952,-4.416e-05,0.0,0 STARLINK-5114,1 54003U 22125AR  23002.09882915 -.00004416  00000-0 -25952-3 0  9996,2 54003  53.2196  33.0009 0002539  30.3574 329.7565 15.08837936 14008,6917.887,95.438,541.508,537.995,0.0
54003.0,STARLINK-5114,PAYLOAD,2023-01-02 11:54:36,15.08848969,0.0002541,53.2186,31.2163,31.6431,328.4713,-0.00013359,-2.415e-05,0.0,0 STARLINK-5114,1 54003U 22125AR  23002.49625685 -.00002415  00000-0 -13359-3 0  9994,2 54003  53.2186  31.2163 0002541  31.6431 328.4713 15.08848969 14062,6917.853,95.437,541.476,537.96,0.0
54003.0,STARLINK-5114,PAYLOAD,2023-01-02 18:16:09,15.08847407,0.0002548,53.2188,30.0269,32.07,328.0447,-0.00010259,-1.921e-05,0.0,0 STARLINK-5114,1 54003U 22125AR  23002.76121590 -.00001921  00000-0 -10259-3 0  9997,2 54003  53.2188  30.0269 0002548  32.0700 328.0447 15.08847407 14054,6917.858,95.437,541.485,537.96,0.0
54003.0,STARLINK-5114,PAYLOAD,2023-01-03 02:13:05,15.08827475,0.0002511,53.2187,28.5398,30.2226,329.8911,0.00012258,1.662e-05,0.0,0 STARLINK-5114,1 54003U 22125AR  23003.09241964  .00001662  00000-0  12258-3 0  9993,2 54003  53.2187  28.5398 0002511  30.2226 329.8911 15.08827475 14150,6917.919,95.438,541.521,538.047,0.0
54003.0,STARLINK-5114,PAYLOAD,2023-01-03 10:10:00,15.08836495,0.0002568,53.2189,27.0532,31.4717,328.6428,0.00012767,1.744e-05,0.0,0 STARLINK-5114,1 54003U 22125AR  23003.42361644  .00001744  00000-0  12767-3 0  9994,2 54003  53.2189  27.0532 0002568  31.4717 328.6428 15.08836495 14204,6917.891,95.438,541.533,537.98,0.0
54003.0,STARLINK-5114,PAYLOAD,2023-01-03 11:45:23,15.08835352,0.000256,53.2191,26.7557,31.623,328.4916,0.00014984,2.097e-05,0.0,0 STARLINK-5114,1 54003U 22125AR  23003.48985680  .00002097  00000-0  14984-3 0  9997,2 54003  53.2191  26.7557 0002560  31.6230 328.4916 15.08835352 14160,6917.895,95.438,541.531,537.989,0.0
54003.0,STARLINK-5114,PAYLOAD,2023-01-03 18:06:57,15.08822197,0.0002559,53.2181,25.567,26.2446,333.8676,0.00016714,2.371e-05,0.0,0 STARLINK-5114,1 54003U 22125AR  23003.75482716  .00002371  00000-0  16714-3 0  9997,2 54003  53.2181  25.5670 0002559  26.2446 333.8676 15.08822197 14255,6917.935,95.439,541.57,538.03,0.0
54003.0,STARLINK-5114,PAYLOAD,2023-01-04 11:36:10,15.08841564,0.0002688,53.219,22.2943,26.4749,333.6380000000001,5.1268e-05,5.28e-06,0.0,0 STARLINK-5114,1 54003U 22125AR  23004.48346026  .00000528  00000-0  51268-4 0  9997,2 54003  53.2190  22.2943 0002688  26.4749 333.6380 15.08841564 14364,6917.876,95.437,541.6,537.881,0.0
54003.0,STARLINK-5114,PAYLOAD,2023-01-04 17:57:42,15.08848819,0.0002625,53.2196,21.1058,31.8672,328.2479,7.6871e-05,9.35e-06,0.0,0 STARLINK-5114,1 54003U 22125AR  23004.74841400  .00000935  00000-0  76871-4 0  9991,2 54003  53.2196  21.1058 0002625  31.8672 328.2479 15.08848819 14405,6917.853,95.437,541.534,537.9019999999998,0.0
54003.0,STARLINK-5114,PAYLOAD,2023-01-05 09:51:33,15.08853836,0.0002459,53.22,18.1317,29.8664,330.2469,9.8079e-05,1.273e-05,0.0,0 STARLINK-5114,1 54003U 22125AR  23005.41080464  .00001273  00000-0  98079-4 0  9991,2 54003  53.2200  18.1317 0002459  29.8664 330.2469 15.08853836 14450,6917.8380000000025,95.437,541.404,538.002,0.0
54003.0,STARLINK-5114,PAYLOAD,2023-01-05 17:48:28,15.08858422,0.0002596,53.2191,16.6446,29.0772,331.0365,6.0755e-05,6.79e-06,0.0,0 STARLINK-5114,1 54003U 22125AR  23005.74199992  .00000679  00000-0  60755-4 0  9993,2 54003  53.2191  16.6446 0002596  29.0772 331.0365 15.08858422 14505,6917.824000000001,95.436,541.485,537.893,0.0
54003.0,STARLINK-5114,PAYLOAD,2023-01-06 06:31:35,15.08825577,0.0002684,53.2189,14.2653,33.6264,326.4898,-4.0244e-05,-9.29e-06,0.0,0 STARLINK-5114,1 54003U 22125AR  23006.27194396 -.00000929  00000-0 -40244-4 0  9996,2 54003  53.2189  14.2653 0002684  33.6264 326.4898 15.08825577 14639,6917.924,95.438,541.646,537.933,0.0
